[{"OBJECT_NAME":"ICEYE-X50","OBJECT_ID":"2025-052AX","EPOCH":"2026-03-09T23:21:07.900704","MEAN_MOTION":14.94907916,"ECCENTRICITY":0.00023707,"INCLINATION":97.7003,"RA_OF_ASC_NODE":322.7375,"ARG_OF_PERICENTER":140.471,"MEAN_ANOMALY":219.6684,"EPHEMERIS_TYPE":0,"CLASSIFICATION_TYPE":"U","NORAD_CAT_ID":63255,"ELEMENT_SET_NO":999,"REV_AT_EPOCH":5382,"BSTAR":0.00028014497,"MEAN_MOTION_DOT":2.999e-5,"MEAN_MOTION_DDOT":0},{"OBJECT_NAME":"IRIDE-MS2-HEO-9","OBJECT_ID":"2025-135BK","EPOCH":"2026-03-09T21:52:15.799008","MEAN_MOTION":14.94083208,"ECCENTRICITY":0.00030266,"INCLINATION":97.762,"RA_OF_ASC_NODE":184.6607,"ARG_OF_PERICENTER":333.8916,"MEAN_ANOMALY":26.2151,"EPHEMERIS_TYPE":0,"CLASSIFICATION_TYPE":"U","NORAD_CAT_ID":64585,"ELEMENT_SET_NO":999,"REV_AT_EPOCH":3908,"BSTAR":0.00032181213,"MEAN_MOTION_DOT":3.381e-5,"MEAN_MOTION_DDOT":0}]
